start=new Date('2022-09-01T00:00:00.000Z').valueOf();
sats=[{"FILE":"3552511","RA_OF_ASC_NODE":"297.3921","MEAN_ELEMENT_THEORY":"SGP4","GP_ID":"211394580","NORAD_CAT_ID":"49149","CENTER_NAME":"EARTH","MEAN_MOTION":"14.98331035","RCS_SIZE":"LARGE","EPHEMERIS_TYPE":"0","EPOCH":"2022-08-31T12:00:23.306400","TLE_LINE1":"1 49149U 21082V   22243.50026975 -.00000504  00000-0 -34481-4 0  9992","REF_FRAME":"TEME","MEAN_MOTION_DDOT":"0.0000000000000","BSTAR":"-0.00003448100000","INCLINATION":"70.0004","LAUNCH_DATE":"2021-09-14","TLE_LINE2":"2 49149  70.0004 297.3921 0003104 254.2188 105.8629 14.98331035 54514","TIME_SYSTEM":"UTC","DECAY_DATE":null,"PERIAPSIS":"569.897","OBJECT_NAME":"STARLINK-3053","MEAN_MOTION_DOT":"-0.00000504","COUNTRY_CODE":"US","SITE":"AFWTR","CLASSIFICATION_TYPE":"U","REV_AT_EPOCH":"5451","ELEMENT_SET_NO":"999","ECCENTRICITY":"0.00031040","MEAN_ANOMALY":"105.8629","OBJECT_ID":"2021-082V","ARG_OF_PERICENTER":"254.2188","OBJECT_TYPE":"PAYLOAD","PERIOD":"96.107","APOAPSIS":"574.212","SEMIMAJOR_AXIS":"6950.190"},{"FILE":"3552535","RA_OF_ASC_NODE":"297.4051","GP_ID":"211397459","MEAN_ELEMENT_THEORY":"SGP4","MEAN_MOTION":"14.98330033","NORAD_CAT_ID":"49150","CENTER_NAME":"EARTH","REF_FRAME":"TEME","MEAN_MOTION_DDOT":"0.0000000000000","TLE_LINE1":"1 49150U 21082W   22243.49550184 -.00000475  00000-0 -31998-4 0  9993","RCS_SIZE":"LARGE","EPOCH":"2022-08-31T11:53:31.358976","EPHEMERIS_TYPE":"0","BSTAR":"-0.00003199800000","TLE_LINE2":"2 49150  70.0000 297.4051 0003230 252.4173 107.6634 14.98330033 54525","LAUNCH_DATE":"2021-09-14","INCLINATION":"70.0000","PERIAPSIS":"569.813","OBJECT_NAME":"STARLINK-3104","DECAY_DATE":null,"TIME_SYSTEM":"UTC","COUNTRY_CODE":"US","MEAN_MOTION_DOT":"-0.00000475","CLASSIFICATION_TYPE":"U","SITE":"AFWTR","MEAN_ANOMALY":"107.6634","REV_AT_EPOCH":"5452","ELEMENT_SET_NO":"999","ECCENTRICITY":"0.00032300","ARG_OF_PERICENTER":"252.4173","OBJECT_ID":"2021-082W","OBJECT_TYPE":"PAYLOAD","PERIOD":"96.107","APOAPSIS":"574.303","SEMIMAJOR_AXIS":"6950.193"},{"APOAPSIS":"579.272","SEMIMAJOR_AXIS":"6955.189","OBJECT_ID":"2021-082X","ARG_OF_PERICENTER":"257.7633","OBJECT_TYPE":"PAYLOAD","PERIOD":"96.211","CLASSIFICATION_TYPE":"U","SITE":"AFWTR","MEAN_ANOMALY":"102.3168","REV_AT_EPOCH":"5551","ECCENTRICITY":"0.00031880","ELEMENT_SET_NO":"999","PERIAPSIS":"574.837","OBJECT_NAME":"STARLINK-3102","DECAY_DATE":null,"TIME_SYSTEM":"UTC","COUNTRY_CODE":"US","MEAN_MOTION_DOT":"-0.00000624","BSTAR":"-0.00004648100000","TLE_LINE2":"2 49151  69.9978 257.2274 0003188 257.7633 102.3168 14.96715717 55517","INCLINATION":"69.9978","LAUNCH_DATE":"2021-09-14","MEAN_MOTION":"14.96715717","NORAD_CAT_ID":"49151","CENTER_NAME":"EARTH","REF_FRAME":"TEME","MEAN_MOTION_DDOT":"0.0000000000000","TLE_LINE1":"1 49151U 21082X   22243.47424518 -.00000624  00000-0 -46481-4 0  9992","EPOCH":"2022-08-31T11:22:54.783552","RCS_SIZE":"LARGE","EPHEMERIS_TYPE":"0","GP_ID":"211397474","MEAN_ELEMENT_THEORY":"SGP4","FILE":"3552536","RA_OF_ASC_NODE":"257.2274"},{"DECAY_DATE":null,"PERIAPSIS":"574.978","OBJECT_NAME":"STARLINK-3081","TIME_SYSTEM":"UTC","MEAN_MOTION_DOT":"-0.00000997","COUNTRY_CODE":"US","CLASSIFICATION_TYPE":"U","SITE":"AFWTR","MEAN_ANOMALY":"109.1151","ELEMENT_SET_NO":"999","ECCENTRICITY":"0.00029600","REV_AT_EPOCH":"5542","OBJECT_ID":"2021-082Y","ARG_OF_PERICENTER":"250.9687","PERIOD":"96.210","OBJECT_TYPE":"PAYLOAD","APOAPSIS":"579.096","SEMIMAJOR_AXIS":"6955.172","FILE":"3552511","RA_OF_ASC_NODE":"257.2785","GP_ID":"211393829","MEAN_ELEMENT_THEORY":"SGP4","MEAN_MOTION":"14.96721375","NORAD_CAT_ID":"49152","CENTER_NAME":"EARTH","REF_FRAME":"TEME","MEAN_MOTION_DDOT":"0.0000000000000","EPOCH":"2022-08-31T10:46:51.990240","RCS_SIZE":"LARGE","EPHEMERIS_TYPE":"0","TLE_LINE1":"1 49152U 21082Y   22243.44921285 -.00000997  00000-0 -79116-4 0  9997","BSTAR":"-0.00007911600000","TLE_LINE2":"2 49152  69.9976 257.2785 0002960 250.9687 109.1151 14.96721375 55428","INCLINATION":"69.9976","LAUNCH_DATE":"2021-09-14"},{"GP_ID":"211368574","MEAN_ELEMENT_THEORY":"SGP4","FILE":"3552413","RA_OF_ASC_NODE":"257.2654","BSTAR":"0.00004491600000","TLE_LINE2":"2 49153  69.9977 257.2654 0003078 262.4447  97.6361 14.96710773 54296","LAUNCH_DATE":"2021-09-14","INCLINATION":"69.9977","MEAN_MOTION":"14.96710773","NORAD_CAT_ID":"49153","CENTER_NAME":"EARTH","REF_FRAME":"TEME","MEAN_MOTION_DDOT":"0.0000000000000","TLE_LINE1":"1 49153U 21082Z   22243.46450945  .00000422  00000-0  44916-4 0  9991","EPHEMERIS_TYPE":"0","RCS_SIZE":"LARGE","EPOCH":"2022-08-31T11:08:53.616480","CLASSIFICATION_TYPE":"U","SITE":"AFWTR","MEAN_ANOMALY":"97.6361","ELEMENT_SET_NO":"999","ECCENTRICITY":"0.00030780","REV_AT_EPOCH":"5429","PERIAPSIS":"574.929","OBJECT_NAME":"STARLINK-3072","DECAY_DATE":null,"TIME_SYSTEM":"UTC","COUNTRY_CODE":"US","MEAN_MOTION_DOT":"0.00000422","APOAPSIS":"579.211","SEMIMAJOR_AXIS":"6955.205","ARG_OF_PERICENTER":"262.4447","OBJECT_ID":"2021-082Z","PERIOD":"96.211","OBJECT_TYPE":"PAYLOAD"},{"GP_ID":"211397716","MEAN_ELEMENT_THEORY":"SGP4","FILE":"3552552","RA_OF_ASC_NODE":"277.4746","BSTAR":"0.00010038000000","TLE_LINE2":"2 49154  69.9991 277.4746 0004939 260.2853  99.7748 14.98330474 54888","LAUNCH_DATE":"2021-09-14","INCLINATION":"69.9991","MEAN_MOTION":"14.98330474","NORAD_CAT_ID":"49154","CENTER_NAME":"EARTH","REF_FRAME":"TEME","MEAN_MOTION_DDOT":"0.0000000000000","TLE_LINE1":"1 49154U 21082AA  22243.46346002  .00001105  00000-0  10038-3 0  9996","EPOCH":"2022-08-31T11:07:22.945728","RCS_SIZE":"LARGE","EPHEMERIS_TYPE":"0","SITE":"AFWTR","CLASSIFICATION_TYPE":"U","MEAN_ANOMALY":"99.7748","ECCENTRICITY":"0.00049390","ELEMENT_SET_NO":"999","REV_AT_EPOCH":"5488","PERIAPSIS":"568.624","OBJECT_NAME":"STARLINK-3068","DECAY_DATE":null,"TIME_SYSTEM":"UTC","COUNTRY_CODE":"US","MEAN_MOTION_DOT":"0.00001105","APOAPSIS":"575.489","SEMIMAJOR_AXIS":"6950.191","ARG_OF_PERICENTER":"260.2853","OBJECT_ID":"2021-082AA","PERIOD":"96.107","OBJECT_TYPE":"PAYLOAD"},{"LAUNCH_DATE":"2021-09-14","INCLINATION":"69.9958","TLE_LINE2":"2 49155  69.9958 257.0226 0003574 254.5390 105.5374 14.97311967 55398","BSTAR":"0.00012270000000","EPOCH":"2022-08-31T12:17:36.415392","RCS_SIZE":"LARGE","EPHEMERIS_TYPE":"0","TLE_LINE1":"1 49155U 21082AB  22243.51222703  .00001334  00000-0  12270-3 0  9998","MEAN_MOTION_DDOT":"0.0000000000000","REF_FRAME":"TEME","CENTER_NAME":"EARTH","NORAD_CAT_ID":"49155","MEAN_MOTION":"14.97311967","MEAN_ELEMENT_THEORY":"SGP4","GP_ID":"211397223","RA_OF_ASC_NODE":"257.0226","FILE":"3552552","SEMIMAJOR_AXIS":"6953.343","APOAPSIS":"577.693","PERIOD":"96.172","OBJECT_TYPE":"PAYLOAD","ARG_OF_PERICENTER":"254.5390","OBJECT_ID":"2021-082AB","ELEMENT_SET_NO":"999","REV_AT_EPOCH":"5539","ECCENTRICITY":"0.00035740","MEAN_ANOMALY":"105.5374","CLASSIFICATION_TYPE":"U","SITE":"AFWTR","MEAN_MOTION_DOT":"0.00001334","COUNTRY_CODE":"US","TIME_SYSTEM":"UTC","DECAY_DATE":null,"PERIAPSIS":"572.723","OBJECT_NAME":"STARLINK-3060"},{"MEAN_MOTION_DOT":"-0.00001579","COUNTRY_CODE":"US","TIME_SYSTEM":"UTC","DECAY_DATE":null,"OBJECT_NAME":"STARLINK-3085","PERIAPSIS":"574.919","ECCENTRICITY":"0.00031080","ELEMENT_SET_NO":"999","REV_AT_EPOCH":"5544","MEAN_ANOMALY":"88.1865","SITE":"AFWTR","CLASSIFICATION_TYPE":"U","PERIOD":"96.211","OBJECT_TYPE":"PAYLOAD","ARG_OF_PERICENTER":"271.8937","OBJECT_ID":"2021-082AC","SEMIMAJOR_AXIS":"6955.216","APOAPSIS":"579.243","RA_OF_ASC_NODE":"256.3016","FILE":"3552761","MEAN_ELEMENT_THEORY":"SGP4","GP_ID":"211426302","RCS_SIZE":"LARGE","EPHEMERIS_TYPE":"0","EPOCH":"2022-08-31T20:10:18.839712","TLE_LINE1":"1 49156U 21082AC  22243.84049583 -.00001579  00000-0 -13004-3 0  9997","MEAN_MOTION_DDOT":"0.0000000000000","REF_FRAME":"TEME","NORAD_CAT_ID":"49156","CENTER_NAME":"EARTH","MEAN_MOTION":"14.96707183","INCLINATION":"69.9980","LAUNCH_DATE":"2021-09-14","TLE_LINE2":"2 49156  69.9980 256.3016 0003108 271.8937  88.1865 14.96707183 55440","BSTAR":"-0.00013004000000"},{"MEAN_MOTION_DDOT":"0.0000000000000","REF_FRAME":"TEME","TLE_LINE1":"1 49157U 21082AD  22243.45867283  .00002967  00000-0  25636-3 0  9994","RCS_SIZE":"LARGE","EPHEMERIS_TYPE":"0","EPOCH":"2022-08-31T11:00:29.332512","MEAN_MOTION":"14.98319778","CENTER_NAME":"EARTH","NORAD_CAT_ID":"49157","TLE_LINE2":"2 49157  69.9991 277.4822 0006092 259.4208 100.6265 14.98319778 54905","INCLINATION":"69.9991","LAUNCH_DATE":"2021-09-14","BSTAR":"0.00025636000000","RA_OF_ASC_NODE":"277.4822","FILE":"3552643","GP_ID":"211399626","MEAN_ELEMENT_THEORY":"SGP4","PERIOD":"96.108","OBJECT_TYPE":"PAYLOAD","ARG_OF_PERICENTER":"259.4208","OBJECT_ID":"2021-082AD","SEMIMAJOR_AXIS":"6950.225","APOAPSIS":"576.324","COUNTRY_CODE":"US","MEAN_MOTION_DOT":"0.00002967","OBJECT_NAME":"STARLINK-3051","PERIAPSIS":"567.855","DECAY_DATE":null,"TIME_SYSTEM":"UTC","MEAN_ANOMALY":"100.6265","ECCENTRICITY":"0.00060920","ELEMENT_SET_NO":"999","REV_AT_EPOCH":"5490","CLASSIFICATION_TYPE":"U","SITE":"AFWTR"},{"DECAY_DATE":null,"PERIAPSIS":"574.264","OBJECT_NAME":"STARLINK-3083","TIME_SYSTEM":"UTC","MEAN_MOTION_DOT":"0.00001168","COUNTRY_CODE":"US","SITE":"AFWTR","CLASSIFICATION_TYPE":"U","MEAN_ANOMALY":"101.4484","REV_AT_EPOCH":"5493","ELEMENT_SET_NO":"999","ECCENTRICITY":"0.00034570","ARG_OF_PERICENTER":"258.6286","OBJECT_ID":"2021-082AE","PERIOD":"96.203","OBJECT_TYPE":"PAYLOAD","APOAPSIS":"579.073","SEMIMAJOR_AXIS":"6954.803","FILE":"3552761","RA_OF_ASC_NODE":"277.0161","GP_ID":"211424801","MEAN_ELEMENT_THEORY":"SGP4","MEAN_MOTION":"14.96840384","CENTER_NAME":"EARTH","NORAD_CAT_ID":"49158","REF_FRAME":"TEME","MEAN_MOTION_DDOT":"0.0000000000000","EPHEMERIS_TYPE":"0","RCS_SIZE":"LARGE","EPOCH":"2022-08-31T15:46:50.442528","TLE_LINE1":"1 49158U 21082AE  22243.65752827  .00001168  00000-0  10968-3 0  9998","BSTAR":"0.00010968000000","TLE_LINE2":"2 49158  69.9989 277.0161 0003457 258.6286 101.4484 14.96840384 54939","INCLINATION":"69.9989","LAUNCH_DATE":"2021-09-14"}];
